KUIPER-00619            
1 69777U 26151Q   26198.45008441  .00012561  00000+0  33433-3 0  9996
2 69777  51.8811 169.3464 0001932  65.4654 294.6534 15.38577098  2367
KUIPER-00621            
1 69778U 26151R   26198.38733779  .00013670  00000+0  36532-3 0  9993
2 69778  51.8800 169.6799 0001823 118.5119 241.6052 15.38369163  2353
KUIPER-00622            
1 69779U 26151S   26198.53029891 -.00002579  00000+0 -59527-4 0  9992
2 69779  51.8738 169.1357 0006772 155.1663 204.9651 15.36960715  2375
KUIPER-00623            
1 69780U 26151T   26198.26556190  .00133416  00000+0  34980-2 0  9998
2 69780  51.8777 170.3650 0006129 146.6000 213.5375 15.37672053  2337
KUIPER-00626            
1 69781U 26151U   26198.41190649 -.00010341  00000+0 -28626-3 0  9993
2 69781  51.8712 169.8382 0009067 170.0870 190.0296 15.35270270  2358
KUIPER-00627            
1 69782U 26151V   26198.47892130 -.00090992  00000+0 -26561-2 0  9999
2 69782  51.8690 169.5347 0011093 175.2038 184.9056 15.34978248  2363
KUIPER-00629            
1 69783U 26151W   26198.66670139 -.01656451  00000+0 -56479-1 0  9993
2 69783  51.8772 168.5488 0006907 170.6496 198.9273 15.32901652  2724
KUIPER-00631            
1 69784U 26151X   26198.66670139 -.00828078  00000+0 -27066-1 0  9999
2 69784  51.8734 168.5471 0008054 168.2495 196.0955 15.33643846  1300
KUIPER-00634            
1 69785U 26151Y   26198.39302663  .00012489  00000+0  34115-3 0  9998
2 69785  51.8780 169.7179 0003687 146.6748 213.4471 15.37775798  2357
KUIPER-00639            
1 69786U 26151Z   26198.53932424 -.00062241  00000+0 -17706-2 0  9998
2 69786  51.8689 169.1889 0009112 170.0527 190.0641 15.35626821  2374
KUIPER-00641            
1 69787U 26151AA  26197.95947972 -.00010869  00000+0 -30790-3 0  9996
2 69787  51.8636 172.0481 0008552 168.9885 191.1289 15.34625447  2280
KUIPER-00644            
1 69788U 26151AB  26198.34322536 -.00164685  00000+0 -51439-2 0  9992
2 69788  51.8730 170.1198 0006683 166.5936 193.5228 15.33257647  2342
KUIPER-00646            
1 69789U 26151AC  26198.53864066  .00011396  00000+0  33092-3 0  9997
2 69789  51.8700 169.1868 0009317 172.9789 187.1329 15.35928647  2377
KUIPER-00647            
1 69790U 26151AD  26198.54298840 -.00043903  00000+0 -12560-2 0  9998
2 69790  51.8662 169.2125 0014557 181.7392 178.3546 15.35223267  2372
KUIPER-00662            
1 69791U 26151AE  26198.46984126 -.00009472  00000+0 -25076-3 0  9999
2 69791  51.8739 169.4799 0008442 167.1038 193.0165 15.36535255  2362
LINK                    
1 69792U 26152A   26198.60314765  .00128921  00000+0  10810-2 0  9991
2 69792  20.5911 308.8597 0025056  28.8731 331.3098 15.67730310  2237
2026-152B               
1 69793U 26152B   26198.55215383  .00033116  00000+0  30884-3 0  9997
2 69793  20.5981 309.4890 0023033  25.7463 334.4126 15.64949376  2225
ISS OBJECT YJ           
1 69794U 98067YJ  26198.56458247  .00017638  00000+0  31474-3 0  9998
2 69794  51.6316 149.6663 0007778 320.0679  39.9737 15.50120437  2367
ISS OBJECT YK           
1 69795U 98067YK  26197.91534796  .00034939  00000+0  59918-3 0  9997
2 69795  51.6314 152.8314 0006665 326.0799  33.9763 15.50831471  2267
ISS OBJECT YL           
1 69796U 98067YL  26198.23882665  .00025695  00000+0  44689-3 0  9993
2 69796  51.6314 151.2416 0008745 320.0333  40.0011 15.50583869  2308
ISS OBJECT YM           
1 69797U 98067YM  26197.91628009  .00027729  00000+0  48090-3 0  9998
2 69797  51.6313 152.8372 0009511 310.0262  49.9892 15.50611458  2242
ISS OBJECT YN           
1 69798U 98067YN  26197.91720558  .00018350  00000+0  32406-3 0  9995
2 69798  51.6316 152.8433 0009212 321.6470  38.3863 15.50372933  2265
PROVES-ELECTRA          
1 69799U 98067YP  26197.91621234  .00026586  00000+0  46159-3 0  9997
2 69799  51.6313 152.8368 0009660 309.9800  50.0341 15.50603535  2259
QIANFAN-201             
1 69800U 26153A   26198.62747602 -.01845430  00000+0 -88784+0 0  9990
2 69800  88.9921 358.7667 0007305 160.0665 200.0813 14.22580998  1893
QIANFAN-202             
1 69801U 26153B   26198.64916566 -.01899006  00000+0 -10541+1 0  9995
2 69801  88.9919 358.7698 0008309 184.8481 175.2627 14.15037325  1899
QIANFAN-203             
1 69802U 26153C   26198.64240586 -.01638562  00000+0 -87388+0 0  9998
2 69802  88.9920 358.7687 0006205 204.5492 155.5402 14.17262118  1899
QIANFAN-204             
1 69803U 26153D   26198.71583159 -.01833968  00000+0 -99860+0 0  9998
2 69803  88.9920 358.7612 0011945 176.9165 183.2099 14.15925822  1902
QIANFAN-205             
1 69804U 26153E   26198.50493591  .00000096  00000+0  36816-4 0  9998
2 69804  88.9924 358.7850 0007757 174.9248 185.2023 14.22264655  1870
QIANFAN-206             
1 69805U 26153F   26198.49592066  .00000045  00000+0  13436-4 0  9991
2 69805  88.9924 358.7838 0008240 175.6152 184.5114 14.24034597  1872
QIANFAN-207             
1 69806U 26153G   26198.49433466  .00000138  00000+0  53613-4 0  9994
2 69806  88.9924 358.7836 0007678 175.6336 184.4925 14.24250821  1878
