OBJECT_NAME,OBJECT_ID,EPOCH,MEAN_MOTION,ECCENTRICITY,INCLINATION,RA_OF_ASC_NODE,ARG_OF_PERICENTER,MEAN_ANOMALY,EPHEMERIS_TYPE,CLASSIFICATION_TYPE,NORAD_CAT_ID,ELEMENT_SET_NO,REV_AT_EPOCH,BSTAR,MEAN_MOTION_DOT,MEAN_MOTION_DDOT
KUIPER-00619,2026-151Q,2026-07-17T10:48:07.293024,15.38577098,.0001932,51.8811,169.3464,65.4654,294.6534,0,U,69777,999,236,.33433E-3,.12561E-3,0
KUIPER-00621,2026-151R,2026-07-17T09:17:45.985056,15.38369163,.0001823,51.8800,169.6799,118.5119,241.6052,0,U,69778,999,235,.36532E-3,.1367E-3,0
KUIPER-00622,2026-151S,2026-07-17T12:43:37.825824,15.36960715,.0006772,51.8738,169.1357,155.1663,204.9651,0,U,69779,999,237,-.59527E-4,-.2579E-4,0
KUIPER-00623,2026-151T,2026-07-17T06:22:24.548160,15.37672053,.0006129,51.8777,170.3650,146.6000,213.5375,0,U,69780,999,233,.3498E-2,.133416E-2,0
KUIPER-00626,2026-151U,2026-07-17T09:53:08.720736,15.35270270,.0009067,51.8712,169.8382,170.0870,190.0296,0,U,69781,999,235,-.28626E-3,-.10341E-3,0
KUIPER-00627,2026-151V,2026-07-17T11:29:38.800320,15.34978248,.0011093,51.8690,169.5347,175.2038,184.9056,0,U,69782,999,236,-.26561E-2,-.90992E-3,0
KUIPER-00629,2026-151W,2026-07-17T16:00:03.000096,15.32901652,.0006907,51.8772,168.5488,170.6496,198.9273,0,U,69783,999,272,-.56479E-1,-.1656451E-1,0
KUIPER-00631,2026-151X,2026-07-17T16:00:03.000096,15.33643846,.0008054,51.8734,168.5471,168.2495,196.0955,0,U,69784,999,130,-.27066E-1,-.828078E-2,0
KUIPER-00634,2026-151Y,2026-07-17T09:25:57.500832,15.37775798,.0003687,51.8780,169.7179,146.6748,213.4471,0,U,69785,999,235,.34115E-3,.12489E-3,0
KUIPER-00639,2026-151Z,2026-07-17T12:56:37.614336,15.35626821,.0009112,51.8689,169.1889,170.0527,190.0641,0,U,69786,999,237,-.17706E-2,-.62241E-3,0
KUIPER-00641,2026-151AA,2026-07-16T23:01:39.047808,15.34625447,.00085527,51.8636,172.0481,168.9885,191.1289,0,U,69787,999,228,-.3079032E-3,-.10869E-3,0
KUIPER-00644,2026-151AB,2026-07-17T08:14:14.671104,15.33257647,.0006683,51.8730,170.1198,166.5936,193.5228,0,U,69788,999,234,-.51439E-2,-.164685E-2,0
KUIPER-00646,2026-151AC,2026-07-17T12:55:38.553024,15.35928647,.0009317,51.8700,169.1868,172.9789,187.1329,0,U,69789,999,237,.33092E-3,.11396E-3,0
KUIPER-00647,2026-151AD,2026-07-17T13:01:54.197760,15.35223267,.0014557,51.8662,169.2125,181.7392,178.3546,0,U,69790,999,237,-.1256E-2,-.43903E-3,0
KUIPER-00662,2026-151AE,2026-07-17T11:16:34.284864,15.36535255,.0008442,51.8739,169.4799,167.1038,193.0165,0,U,69791,999,236,-.25076E-3,-.9472E-4,0
LINK,2026-152A,2026-07-17T14:28:31.956960,15.67730310,.0025056,20.5911,308.8597,28.8731,331.3098,0,U,69792,999,223,.1081E-2,.128921E-2,0
2026-152B,2026-152B,2026-07-17T13:15:06.090912,15.64949376,.0023033,20.5981,309.4890,25.7463,334.4126,0,U,69793,999,222,.30884E-3,.33116E-3,0
ISS OBJECT YJ,1998-067YJ,2026-07-17T13:32:59.925408,15.50120437,.00077786,51.6316,149.6663,320.0679,39.9737,0,U,69794,999,236,.31473551E-3,.17638E-3,0
ISS OBJECT YK,1998-067YK,2026-07-16T21:58:06.063744,15.50831471,.00066658,51.6314,152.8314,326.0799,33.9763,0,U,69795,999,226,.5991842E-3,.34939E-3,0
ISS OBJECT YL,1998-067YL,2026-07-17T05:43:54.622560,15.50583869,.00087452,51.6314,151.2416,320.0333,40.0011,0,U,69796,999,230,.4468876E-3,.25695E-3,0
ISS OBJECT YM,1998-067YM,2026-07-16T21:59:26.599776,15.50611458,.00095116,51.6313,152.8372,310.0262,49.9892,0,U,69797,999,224,.48090445E-3,.27729E-3,0
ISS OBJECT YN,1998-067YN,2026-07-16T22:00:46.562112,15.50372933,.00092126,51.6316,152.8433,321.6470,38.3863,0,U,69798,999,226,.32406393E-3,.1835E-3,0
PROVES-ELECTRA,1998-067YP,2026-07-16T21:59:20.746176,15.50603535,.00096601,51.6313,152.8368,309.9800,50.0341,0,U,69799,999,225,.46159268E-3,.26586E-3,0
QIANFAN-201,2026-153A,2026-07-17T15:03:33.928128,14.22580998,.0007305,88.9921,358.7667,160.0665,200.0813,0,U,69800,999,189,-.88784E+0,-.184543E-1,0
QIANFAN-202,2026-153B,2026-07-17T15:34:47.913024,14.15037325,.0008309,88.9919,358.7698,184.8481,175.2627,0,U,69801,999,189,-.10541E+1,-.1899006E-1,0
QIANFAN-203,2026-153C,2026-07-17T15:25:03.866304,14.17262118,.0006205,88.9920,358.7687,204.5492,155.5402,0,U,69802,999,189,-.87388E+0,-.1638562E-1,0
QIANFAN-204,2026-153D,2026-07-17T17:10:47.849376,14.15925822,.0011945,88.9920,358.7612,176.9165,183.2099,0,U,69803,999,190,-.9986E+0,-.1833968E-1,0
QIANFAN-205,2026-153E,2026-07-17T12:07:06.462624,14.22264655,.0007757,88.9924,358.7850,174.9248,185.2023,0,U,69804,999,187,.36816E-4,.96E-6,0
QIANFAN-206,2026-153F,2026-07-17T11:54:07.545024,14.24034597,.000824,88.9924,358.7838,175.6152,184.5114,0,U,69805,999,187,.13436E-4,.45E-6,0
QIANFAN-207,2026-153G,2026-07-17T11:51:50.514624,14.24250821,.0007678,88.9924,358.7836,175.6336,184.4925,0,U,69806,999,187,.53613E-4,.138E-5,0
